[{"OBJECT_NAME":"YAOGAN-30 10A","OBJECT_ID":"2021-055A","EPOCH":"2026-03-09T23:48:28.291104","MEAN_MOTION":15.02193247,"ECCENTRICITY":0.0004983,"INCLINATION":34.9965,"RA_OF_ASC_NODE":36.5937,"ARG_OF_PERICENTER":279.793,"MEAN_ANOMALY":80.2215,"EPHEMERIS_TYPE":0,"CLASSIFICATION_TYPE":"U","NORAD_CAT_ID":48860,"ELEMENT_SET_NO":999,"REV_AT_EPOCH":25825,"BSTAR":0.00036861198,"MEAN_MOTION_DOT":4.929e-5,"MEAN_MOTION_DDOT":0},{"OBJECT_NAME":"STARLINK-4632","OBJECT_ID":"2022-105AH","EPOCH":"2026-03-09T15:44:06.795744","MEAN_MOTION":15.05633478,"ECCENTRICITY":0.0002937,"INCLINATION":97.6024,"RA_OF_ASC_NODE":311.2676,"ARG_OF_PERICENTER":86.7911,"MEAN_ANOMALY":273.3651,"EPHEMERIS_TYPE":0,"CLASSIFICATION_TYPE":"U","NORAD_CAT_ID":53679,"ELEMENT_SET_NO":999,"REV_AT_EPOCH":19330,"BSTAR":-0.00011887,"MEAN_MOTION_DOT":-1.775e-5,"MEAN_MOTION_DDOT":0}]
